{
  "type": "FeatureCollection",
  "features": [
    {
      "type": "Feature",
      "properties": {
        "norad_id": 67060,
        "name": "HULIANWANG DIGUI-120",
        "group": "last-30-days",
        "lat": 25.535493204521785,
        "lon": 121.27827932764444,
        "alt_km": 810.2377399031939,
        "timestamp": "2025-12-23T22:42:31.704244+00:00",
        "meta_object_name": "HULIANWANG DIGUI-120",
        "meta_object_id": "2025-295B",
        "meta_epoch": "2025-12-23T06:53:14.453376",
        "meta_mean_motion": 14.25710345,
        "meta_eccentricity": 0.00132036,
        "meta_inclination": 50.0057,
        "meta_ra_of_asc_node": 327.7062,
        "meta_arg_of_pericenter": 284.6359,
        "meta_mean_anomaly": 75.3091,
        "meta_ephemeris_type": 0,
        "meta_classification_type": "U",
        "meta_norad_cat_id": 67060,
        "meta_element_set_no": 999,
        "meta_rev_at_epoch": 162,
        "meta_bstar": -4.5131779e-05,
        "meta_mean_motion_dot": -2.68e-06,
        "meta_mean_motion_ddot": 0,
        "tle_line1": "1 67060U 25295B   25357.28697284 -.00000268  00000+0 -45132-4 0  9996",
        "tle_line2": "2 67060  50.0057 327.7062 0013203 284.6359  75.3091 14.25710345  1627"
      },
      "geometry": {
        "type": "Point",
        "coordinates": [
          121.27827932764444,
          25.535493204521785
        ]
      }
    },
    {
      "type": "Feature",
      "properties": {
        "norad_id": 67061,
        "name": "HULIANWANG DIGUI-121",
        "group": "last-30-days",
        "lat": 30.06403577523426,
        "lon": 115.84556460183556,
        "alt_km": 812.3756623505224,
        "timestamp": "2025-12-23T22:42:31.704255+00:00",
        "meta_object_name": "HULIANWANG DIGUI-121",
        "meta_object_id": "2025-295C",
        "meta_epoch": "2025-12-23T06:54:38.698560",
        "meta_mean_motion": 14.25038978,
        "meta_eccentricity": 0.00134092,
        "meta_inclination": 50.002,
        "meta_ra_of_asc_node": 327.6999,
        "meta_arg_of_pericenter": 282.924,
        "meta_mean_anomaly": 77.0176,
        "meta_ephemeris_type": 0,
        "meta_classification_type": "U",
        "meta_norad_cat_id": 67061,
        "meta_element_set_no": 999,
        "meta_rev_at_epoch": 162,
        "meta_bstar": -3.1599326e-05,
        "meta_mean_motion_dot": -2.34e-06,
        "meta_mean_motion_ddot": 0,
        "tle_line1": "1 67061U 25295C   25357.28794790 -.00000234  00000+0 -31599-4 0  9992",
        "tle_line2": "2 67061  50.0020 327.6999 0013409 282.9240  77.0176 14.25038978  1622"
      },
      "geometry": {
        "type": "Point",
        "coordinates": [
          115.84556460183556,
          30.06403577523426
        ]
      }
    },
    {
      "type": "Feature",
      "properties": {
        "norad_id": 67062,
        "name": "HULIANWANG DIGUI-122",
        "group": "last-30-days",
        "lat": 24.089878782382097,
        "lon": 122.87104414620653,
        "alt_km": 810.6685401377072,
        "timestamp": "2025-12-23T22:42:31.704265+00:00",
        "meta_object_name": "HULIANWANG DIGUI-122",
        "meta_object_id": "2025-295D",
        "meta_epoch": "2025-12-23T06:52:42.149280",
        "meta_mean_motion": 14.25757263,
        "meta_eccentricity": 0.00131621,
        "meta_inclination": 50.0052,
        "meta_ra_of_asc_node": 327.7027,
        "meta_arg_of_pericenter": 290.5441,
        "meta_mean_anomaly": 69.406,
        "meta_ephemeris_type": 0,
        "meta_classification_type": "U",
        "meta_norad_cat_id": 67062,
        "meta_element_set_no": 999,
        "meta_rev_at_epoch": 162,
        "meta_bstar": 6.8051948e-05,
        "meta_mean_motion_dot": 3e-08,
        "meta_mean_motion_ddot": 0,
        "tle_line1": "1 67062U 25295D   25357.28659895  .00000003  00000+0  68052-4 0  9995",
        "tle_line2": "2 67062  50.0052 327.7027 0013162 290.5441  69.4060 14.25757263  1627"
      },
      "geometry": {
        "type": "Point",
        "coordinates": [
          122.87104414620653,
          24.089878782382097
        ]
      }
    },
    {
      "type": "Feature",
      "properties": {
        "norad_id": 67063,
        "name": "HULIANWANG DIGUI-123",
        "group": "last-30-days",
        "lat": 19.97634483839002,
        "lon": 127.1414258917361,
        "alt_km": 809.8386891880164,
        "timestamp": "2025-12-23T22:42:31.704275+00:00",
        "meta_object_name": "HULIANWANG DIGUI-123",
        "meta_object_id": "2025-295E",
        "meta_epoch": "2025-12-23T06:51:11.424960",
        "meta_mean_motion": 14.25890078,
        "meta_eccentricity": 0.00124709,
        "meta_inclination": 50.0059,
        "meta_ra_of_asc_node": 327.6997,
        "meta_arg_of_pericenter": 289.7685,
        "meta_mean_anomaly": 70.1884,
        "meta_ephemeris_type": 0,
        "meta_classification_type": "U",
        "meta_norad_cat_id": 67063,
        "meta_element_set_no": 999,
        "meta_rev_at_epoch": 162,
        "meta_bstar": 6.8610511e-05,
        "meta_mean_motion_dot": 4e-08,
        "meta_mean_motion_ddot": 0,
        "tle_line1": "1 67063U 25295E   25357.28554890  .00000004  00000+0  68611-4 0  9997",
        "tle_line2": "2 67063  50.0059 327.6997 0012470 289.7685  70.1884 14.25890078  1626"
      },
      "geometry": {
        "type": "Point",
        "coordinates": [
          127.1414258917361,
          19.97634483839002
        ]
      }
    },
    {
      "type": "Feature",
      "properties": {
        "norad_id": 67064,
        "name": "HULIANWANG DIGUI-124",
        "group": "last-30-days",
        "lat": 18.08351597812453,
        "lon": 128.97724943634168,
        "alt_km": 808.8889476393451,
        "timestamp": "2025-12-23T22:42:31.704284+00:00",
        "meta_object_name": "HULIANWANG DIGUI-124",
        "meta_object_id": "2025-295F",
        "meta_epoch": "2025-12-22T05:36:45.096192",
        "meta_mean_motion": 14.25948838,
        "meta_eccentricity": 0.00121422,
        "meta_inclination": 50.0035,
        "meta_ra_of_asc_node": 332.1235,
        "meta_arg_of_pericenter": 280.5756,
        "meta_mean_anomaly": 79.379,
        "meta_ephemeris_type": 0,
        "meta_classification_type": "U",
        "meta_norad_cat_id": 67064,
        "meta_element_set_no": 999,
        "meta_rev_at_epoch": 147,
        "meta_bstar": -0.00021789546,
        "meta_mean_motion_dot": -6.84e-06,
        "meta_mean_motion_ddot": 0,
        "tle_line1": "1 67064U 25295F   25356.23385528 -.00000684  00000+0 -21790-3 0  9994",
        "tle_line2": "2 67064  50.0035 332.1235 0012142 280.5756  79.3790 14.25948838  1479"
      },
      "geometry": {
        "type": "Point",
        "coordinates": [
          128.97724943634168,
          18.08351597812453
        ]
      }
    },
    {
      "type": "Feature",
      "properties": {
        "norad_id": 67065,
        "name": "HULIANWANG DIGUI-125",
        "group": "last-30-days",
        "lat": 17.90724528437943,
        "lon": 129.14445078821134,
        "alt_km": 809.6103836773245,
        "timestamp": "2025-12-23T22:42:31.704296+00:00",
        "meta_object_name": "HULIANWANG DIGUI-125",
        "meta_object_id": "2025-295G",
        "meta_epoch": "2025-12-23T06:50:26.691360",
        "meta_mean_motion": 14.2595567,
        "meta_eccentricity": 0.00122649,
        "meta_inclination": 50.0009,
        "meta_ra_of_asc_node": 327.6804,
        "meta_arg_of_pericenter": 290.4683,
        "meta_mean_anomaly": 69.4914,
        "meta_ephemeris_type": 0,
        "meta_classification_type": "U",
        "meta_norad_cat_id": 67065,
        "meta_element_set_no": 999,
        "meta_rev_at_epoch": 162,
        "meta_bstar": 6.5823622e-05,
        "meta_mean_motion_dot": -2e-08,
        "meta_mean_motion_ddot": 0,
        "tle_line1": "1 67065U 25295G   25357.28503115 -.00000002  00000+0  65824-4 0  9995",
        "tle_line2": "2 67065  50.0009 327.6804 0012264 290.4683  69.4914 14.25955670  1623"
      },
      "geometry": {
        "type": "Point",
        "coordinates": [
          129.14445078821134,
          17.90724528437943
        ]
      }
    },
    {
      "type": "Feature",
      "properties": {
        "norad_id": 67066,
        "name": "HULIANWANG DIGUI-126",
        "group": "last-30-days",
        "lat": 13.256422526920678,
        "lon": 133.4656397496532,
        "alt_km": 808.4369583247544,
        "timestamp": "2025-12-23T22:42:31.704308+00:00",
        "meta_object_name": "HULIANWANG DIGUI-126",
        "meta_object_id": "2025-295H",
        "meta_epoch": "2025-12-23T06:48:47.404800",
        "meta_mean_motion": 14.26098645,
        "meta_eccentricity": 0.00114209,
        "meta_inclination": 50.0012,
        "meta_ra_of_asc_node": 327.6735,
        "meta_arg_of_pericenter": 287.6284,
        "meta_mean_anomaly": 72.3383,
        "meta_ephemeris_type": 0,
        "meta_classification_type": "U",
        "meta_norad_cat_id": 67066,
        "meta_element_set_no": 999,
        "meta_rev_at_epoch": 162,
        "meta_bstar": 6.7452012e-05,
        "meta_mean_motion_dot": 2e-08,
        "meta_mean_motion_ddot": 0,
        "tle_line1": "1 67066U 25295H   25357.28388200  .00000002  00000+0  67452-4 0  9990",
        "tle_line2": "2 67066  50.0012 327.6735 0011420 287.6284  72.3383 14.26098645  1623"
      },
      "geometry": {
        "type": "Point",
        "coordinates": [
          133.4656397496532,
          13.256422526920678
        ]
      }
    }
  ]
}